{"fetched_at":"2026-03-29T02:12:04Z","count":15717,"tles":[{"name":"STARLINK-5625","line1":"1 55368U 23013AP  26087.56473219  .00022179  00000+0  83078-3 0  9995","line2":"2 55368  43.0014 181.7894 0001987 280.2967  79.7661 15.26868279174730","category":"Starlink"}]}